{"fetched_at":"2026-07-12T07:15:49.860Z","source":"https://celestrak.org/NORAD/elements/gp.php?NAME=NUSAT&FORMAT=JSON","constellation":"satellogic","records":[{"OBJECT_NAME":"NUSAT-26 (M SOMERVILLE)","OBJECT_ID":"2022-033AD","EPOCH":"2026-07-11T22:55:48.148896","CLASSIFICATION_TYPE":"U","MEAN_MOTION":15.43162261,"ECCENTRICITY":0.0006861,"INCLINATION":97.2345,"RA_OF_ASC_NODE":271.8564,"ARG_OF_PERICENTER":147.3819,"MEAN_ANOMALY":212.7854,"EPHEMERIS_TYPE":0,"NORAD_CAT_ID":52184,"ELEMENT_SET_NO":999,"REV_AT_EPOCH":10852,"BSTAR":0.00024849779,"MEAN_MOTION_DOT":0.00010936,"MEAN_MOTION_DDOT":0},{"OBJECT_NAME":"NUSAT-33 (ALBANIA-2)","OBJECT_ID":"2023-001AQ","EPOCH":"2026-07-11T23:08:06.879264","CLASSIFICATION_TYPE":"U","MEAN_MOTION":15.28229905,"ECCENTRICITY":0.00050795,"INCLINATION":97.3064,"RA_OF_ASC_NODE":253.3956,"ARG_OF_PERICENTER":329.3234,"MEAN_ANOMALY":30.7708,"EPHEMERIS_TYPE":0,"NORAD_CAT_ID":55047,"ELEMENT_SET_NO":999,"REV_AT_EPOCH":19609,"BSTAR":0.00020477117,"MEAN_MOTION_DOT":0.00005561,"MEAN_MOTION_DDOT":0},{"OBJECT_NAME":"NUSAT-35 (WILLIAMINA)","OBJECT_ID":"2023-001AR","EPOCH":"2026-07-11T22:17:45.993984","CLASSIFICATION_TYPE":"U","MEAN_MOTION":15.35769674,"ECCENTRICITY":0.00108556,"INCLINATION":97.1845,"RA_OF_ASC_NODE":245.0577,"ARG_OF_PERICENTER":21.7446,"MEAN_ANOMALY":338.4257,"EPHEMERIS_TYPE":0,"NORAD_CAT_ID":55048,"ELEMENT_SET_NO":999,"REV_AT_EPOCH":19620,"BSTAR":0.0002426285,"MEAN_MOTION_DOT":0.0000838,"MEAN_MOTION_DDOT":0},{"OBJECT_NAME":"NUSAT-39 (TIKVAH ALPER)","OBJECT_ID":"2023-054Z","EPOCH":"2026-07-11T22:39:14.389920","CLASSIFICATION_TYPE":"U","MEAN_MOTION":15.47899961,"ECCENTRICITY":0.00023442,"INCLINATION":97.3102,"RA_OF_ASC_NODE":102.9432,"ARG_OF_PERICENTER":341.5803,"MEAN_ANOMALY":18.5362,"EPHEMERIS_TYPE":0,"NORAD_CAT_ID":56201,"ELEMENT_SET_NO":999,"REV_AT_EPOCH":18228,"BSTAR":0.00032569843,"MEAN_MOTION_DOT":0.00016884,"MEAN_MOTION_DDOT":0},{"OBJECT_NAME":"NUSAT-38 (MARIA AGNESI)","OBJECT_ID":"2023-054AA","EPOCH":"2026-07-11T22:41:20.429376","CLASSIFICATION_TYPE":"U","MEAN_MOTION":15.5105817,"ECCENTRICITY":0.00092892,"INCLINATION":97.304,"RA_OF_ASC_NODE":103.6672,"ARG_OF_PERICENTER":341.0654,"MEAN_ANOMALY":19.0251,"EPHEMERIS_TYPE":0,"NORAD_CAT_ID":56202,"ELEMENT_SET_NO":999,"REV_AT_EPOCH":18234,"BSTAR":0.0003420558,"MEAN_MOTION_DOT":0.00019858,"MEAN_MOTION_DDOT":0},{"OBJECT_NAME":"NUSAT-37 (JOAN CLARKE)","OBJECT_ID":"2023-054AB","EPOCH":"2026-07-11T21:25:20.271936","CLASSIFICATION_TYPE":"U","MEAN_MOTION":15.59390299,"ECCENTRICITY":0.0007429,"INCLINATION":97.2611,"RA_OF_ASC_NODE":100.4709,"ARG_OF_PERICENTER":153.2187,"MEAN_ANOMALY":206.9455,"EPHEMERIS_TYPE":0,"NORAD_CAT_ID":56203,"ELEMENT_SET_NO":999,"REV_AT_EPOCH":18249,"BSTAR":0.00038242099,"MEAN_MOTION_DOT":0.00030176,"MEAN_MOTION_DDOT":0},{"OBJECT_NAME":"NUSAT-40 (C SHOEMAKER)","OBJECT_ID":"2023-084M","EPOCH":"2026-07-12T02:59:15.969696","CLASSIFICATION_TYPE":"U","MEAN_MOTION":15.81771299,"ECCENTRICITY":0.0004206,"INCLINATION":97.4851,"RA_OF_ASC_NODE":341.7158,"ARG_OF_PERICENTER":193.3056,"MEAN_ANOMALY":166.8101,"EPHEMERIS_TYPE":0,"NORAD_CAT_ID":56943,"ELEMENT_SET_NO":999,"REV_AT_EPOCH":17274,"BSTAR":0.00053002,"MEAN_MOTION_DOT":0.00107293,"MEAN_MOTION_DDOT":0},{"OBJECT_NAME":"NUSAT-41 (C PAYNE-G)","OBJECT_ID":"2023-084N","EPOCH":"2026-07-11T21:54:11.490336","CLASSIFICATION_TYPE":"U","MEAN_MOTION":15.30110273,"ECCENTRICITY":0.00062176,"INCLINATION":97.5538,"RA_OF_ASC_NODE":330.026,"ARG_OF_PERICENTER":224.0133,"MEAN_ANOMALY":136.0613,"EPHEMERIS_TYPE":0,"NORAD_CAT_ID":56944,"ELEMENT_SET_NO":999,"REV_AT_EPOCH":17156,"BSTAR":0.00023703384,"MEAN_MOTION_DOT":0.00006831,"MEAN_MOTION_DDOT":0},{"OBJECT_NAME":"NUSAT-42 (M WONENBURGER)","OBJECT_ID":"2023-084AL","EPOCH":"2026-07-11T22:58:03.344160","CLASSIFICATION_TYPE":"U","MEAN_MOTION":15.46416917,"ECCENTRICITY":0.00066004,"INCLINATION":97.5736,"RA_OF_ASC_NODE":338.1288,"ARG_OF_PERICENTER":156.2934,"MEAN_ANOMALY":203.862,"EPHEMERIS_TYPE":0,"NORAD_CAT_ID":56966,"ELEMENT_SET_NO":999,"REV_AT_EPOCH":17190,"BSTAR":0.00028446854,"MEAN_MOTION_DOT":0.00013999,"MEAN_MOTION_DDOT":0},{"OBJECT_NAME":"NUSAT-44 (MARIA MITCHELL)","OBJECT_ID":"2024-043AA","EPOCH":"2026-07-11T22:23:48.264864","CLASSIFICATION_TYPE":"U","MEAN_MOTION":15.29808386,"ECCENTRICITY":0.00063051,"INCLINATION":97.5471,"RA_OF_ASC_NODE":333.5749,"ARG_OF_PERICENTER":140.9718,"MEAN_ANOMALY":219.1978,"EPHEMERIS_TYPE":0,"NORAD_CAT_ID":59122,"ELEMENT_SET_NO":999,"REV_AT_EPOCH":13105,"BSTAR":0.00023489438,"MEAN_MOTION_DOT":0.00006706,"MEAN_MOTION_DDOT":0},{"OBJECT_NAME":"NUSAT-50 (NANCY ROMAN)","OBJECT_ID":"2024-149AB","EPOCH":"2026-07-11T18:12:02.107008","CLASSIFICATION_TYPE":"U","MEAN_MOTION":15.30280412,"ECCENTRICITY":0.00047973,"INCLINATION":97.3788,"RA_OF_ASC_NODE":273.8483,"ARG_OF_PERICENTER":109.7842,"MEAN_ANOMALY":250.3916,"EPHEMERIS_TYPE":0,"NORAD_CAT_ID":60493,"ELEMENT_SET_NO":999,"REV_AT_EPOCH":10588,"BSTAR":0.00019286784,"MEAN_MOTION_DOT":0.00005574,"MEAN_MOTION_DDOT":0},{"OBJECT_NAME":"NUSAT-48 (HENRIETTA LEAVITT)","OBJECT_ID":"2024-149AG","EPOCH":"2026-07-11T16:21:54.724896","CLASSIFICATION_TYPE":"U","MEAN_MOTION":15.30236606,"ECCENTRICITY":0.00044793,"INCLINATION":97.3922,"RA_OF_ASC_NODE":274.058,"ARG_OF_PERICENTER":168.9688,"MEAN_ANOMALY":191.1651,"EPHEMERIS_TYPE":0,"NORAD_CAT_ID":60498,"ELEMENT_SET_NO":999,"REV_AT_EPOCH":10588,"BSTAR":0.00017321815,"MEAN_MOTION_DOT":0.00004991,"MEAN_MOTION_DDOT":0},{"OBJECT_NAME":"NUSAT-49 (KLARA DAN VON NEUMANN)","OBJECT_ID":"2024-149AJ","EPOCH":"2026-07-11T18:56:26.900736","CLASSIFICATION_TYPE":"U","MEAN_MOTION":15.30346061,"ECCENTRICITY":0.00021268,"INCLINATION":97.3781,"RA_OF_ASC_NODE":273.9113,"ARG_OF_PERICENTER":172.2733,"MEAN_ANOMALY":187.8541,"EPHEMERIS_TYPE":0,"NORAD_CAT_ID":60500,"ELEMENT_SET_NO":999,"REV_AT_EPOCH":10589,"BSTAR":0.00017957643,"MEAN_MOTION_DOT":0.00005194,"MEAN_MOTION_DDOT":0},{"OBJECT_NAME":"NUSAT-45 (UZMASAT-1)","OBJECT_ID":"2025-009AH","EPOCH":"2026-07-11T18:40:38.650368","CLASSIFICATION_TYPE":"U","MEAN_MOTION":15.30344515,"ECCENTRICITY":0.00014845,"INCLINATION":97.3594,"RA_OF_ASC_NODE":273.7573,"ARG_OF_PERICENTER":187.7536,"MEAN_ANOMALY":172.3682,"EPHEMERIS_TYPE":0,"NORAD_CAT_ID":62640,"ELEMENT_SET_NO":999,"REV_AT_EPOCH":8268,"BSTAR":0.00018704853,"MEAN_MOTION_DOT":0.00005413,"MEAN_MOTION_DDOT":0},{"OBJECT_NAME":"NUSAT-52","OBJECT_ID":"2025-276AC","EPOCH":"2026-07-11T18:29:57.412032","CLASSIFICATION_TYPE":"U","MEAN_MOTION":15.20016429,"ECCENTRICITY":0.00016773,"INCLINATION":97.4204,"RA_OF_ASC_NODE":265.9125,"ARG_OF_PERICENTER":303.5612,"MEAN_ANOMALY":56.5463,"EPHEMERIS_TYPE":0,"NORAD_CAT_ID":66692,"ELEMENT_SET_NO":999,"REV_AT_EPOCH":3415,"BSTAR":0.00014050375,"MEAN_MOTION_DOT":0.00002959,"MEAN_MOTION_DDOT":0},{"OBJECT_NAME":"NUSAT-51 (YVONNE BRILL)","OBJECT_ID":"2025-276CC","EPOCH":"2026-07-11T18:33:21.270240","CLASSIFICATION_TYPE":"U","MEAN_MOTION":15.20541609,"ECCENTRICITY":0.00015929,"INCLINATION":97.4208,"RA_OF_ASC_NODE":266.0549,"ARG_OF_PERICENTER":258.3458,"MEAN_ANOMALY":101.7599,"EPHEMERIS_TYPE":0,"NORAD_CAT_ID":66740,"ELEMENT_SET_NO":999,"REV_AT_EPOCH":3416,"BSTAR":0.00016223551,"MEAN_MOTION_DOT":0.00003481,"MEAN_MOTION_DDOT":0}]}
