NUSAT-26 (M SOMERVILLE) 
1 52184U 22033AD  26192.95541839  .00010936  00000+0  24850-3 0  9994
2 52184  97.2345 271.8564 0006861 147.3819 212.7854 15.43162261108525
NUSAT-33 (ALBANIA-2)    
1 55047U 23001AQ  26192.96396851  .00005561  00000+0  20477-3 0  9993
2 55047  97.3064 253.3956 0005079 329.3234  30.7708 15.28229905196095
NUSAT-35 (WILLIAMINA)   
1 55048U 23001AR  26192.92900456  .00008380  00000+0  24263-3 0  9991
2 55048  97.1845 245.0577 0010855  21.7446 338.4257 15.35769674196204
NUSAT-39 (TIKVAH ALPER) 
1 56201U 23054Z   26192.94391655  .00016884  00000+0  32570-3 0  9996
2 56201  97.3102 102.9432 0002344 341.5803  18.5362 15.47899961182281
NUSAT-38 (MARIA AGNESI) 
1 56202U 23054AA  26192.94537534  .00019858  00000+0  34206-3 0  9997
2 56202  97.3040 103.6672 0009289 341.0654  19.0251 15.51058170182345
NUSAT-37 (JOAN CLARKE)  
1 56203U 23054AB  26192.89259574  .00030176  00000+0  38242-3 0  9997
2 56203  97.2611 100.4709 0007429 153.2187 206.9455 15.59390299182491
NUSAT-40 (C SHOEMAKER)  
1 56943U 23084M   26193.12449039  .00107293  00000+0  53002-3 0  9991
2 56943  97.4851 341.7158 0004206 193.3056 166.8101 15.81771299172745
NUSAT-41 (C PAYNE-G)    
1 56944U 23084N   26192.91263299  .00006831  00000+0  23703-3 0  9991
2 56944  97.5538 330.0260 0006217 224.0133 136.0613 15.30110273171565
NUSAT-42 (M WONENBURGER)
1 56966U 23084AL  26192.95698315  .00013999  00000+0  28447-3 0  9993
2 56966  97.5736 338.1288 0006600 156.2934 203.8620 15.46416917171909
NUSAT-44 (MARIA MITCHE*)
1 59122U 24043AA  26192.93319751  .00006706  00000+0  23489-3 0  9997
2 59122  97.5471 333.5749 0006305 140.9718 219.1978 15.29808386131059
NUSAT-50 (NANCY ROMAN)  
1 60493U 24149AB  26192.75835772  .00005574  00000+0  19287-3 0  9996
2 60493  97.3788 273.8483 0004797 109.7842 250.3916 15.30280412105883
NUSAT-48 (HENRIETTA LE*)
1 60498U 24149AG  26192.68188339  .00004991  00000+0  17322-3 0  9993
2 60498  97.3922 274.0580 0004479 168.9688 191.1651 15.30236606105885
NUSAT-49 (KLARA DAN VO*)
1 60500U 24149AJ  26192.78920024  .00005194  00000+0  17958-3 0  9994
2 60500  97.3781 273.9113 0002126 172.2733 187.8541 15.30346061105896
NUSAT-45 (UZMASAT-1)    
1 62640U 25009AH  26192.77822512  .00005413  00000+0  18705-3 0  9994
2 62640  97.3594 273.7573 0001484 187.7536 172.3682 15.30344515 82689
NUSAT-52                
1 66692U 25276AC  26192.77080338  .00002959  00000+0  14050-3 0  9994
2 66692  97.4204 265.9125 0001677 303.5612  56.5463 15.20016429 34150
NUSAT-51 (YVONNE BRILL) 
1 66740U 25276CC  26192.77316285  .00003481  00000+0  16224-3 0  9997
2 66740  97.4208 266.0549 0001592 258.3458 101.7599 15.20541609 34168
